ONEWEB-0326             
1 49195U 21083K   23011.50957068  .00000022  00000+0  22705-4 0  9992
2 49195  87.9195 224.3210 0001167 115.1584 244.9670 13.18684553 66180
ONEWEB-0327             
1 49196U 21083L   23011.56226351 -.00000043  00000+0 -14177-3 0  9991
2 49196  87.9189 224.2874 0001385 123.2066 236.9199 13.18682013 66216
ONEWEB-0328             
1 49197U 21083M   23011.55758757 -.00000121  00000+0 -36730-3 0  9997
2 49197  87.9022 209.1291 0001311  90.8731 269.2548 13.13471147 67751
ONEWEB-0331             
1 49198U 21083N   23011.50324239 -.00000020  00000+0 -82899-4 0  9993
2 49198  87.9187 224.3440 0001330  99.5681 260.5601 13.18684348 66195
ONEWEB-0333             
1 49199U 21083P   23011.55228877 -.00001163  00000+0 -32211-2 0  9990
2 49199  87.9024 209.1302 0001699  83.9765 276.1557 13.13470194 67766
ONEWEB-0334             
1 49200U 21083Q   23011.47025333  .00000024  00000+0  26163-4 0  9990
2 49200  87.9318 163.7519 0002450  90.2121 269.9293 13.20770302 71431
ONEWEB-0335             
1 49201U 21083R   23011.54809372  .00000094  00000+0  22374-3 0  9998
2 49201  87.9023 209.1237 0001242  88.1578 271.9693 13.13467369 67774
ONEWEB-0336             
1 49202U 21083S   23011.51635322  .00000065  00000+0  14241-3 0  9990
2 49202  87.9024 209.1301 0001641  86.8539 273.2777 13.13472918 67777
ONEWEB-0337             
1 49203U 21083T   23011.53961714  .00000311  00000+0  81740-3 0  9992
2 49203  87.9023 209.1282 0001300  87.9157 272.2121 13.13470216 66472
ONEWEB-0338             
1 49204U 21083U   23011.47653436 -.00000056  00000+0 -17032-3 0  9996
2 49204  87.9277 163.7583 0002053  77.1880 282.9483 13.20781504 71459
ONEWEB-0339             
1 49205U 21083V   23011.53856728  .00000333  00000+0  87801-3 0  9990
2 49205  87.9021 209.1278 0001482  71.7170 288.4120 13.13469284 66453
ONEWEB-0340             
1 49206U 21083W   23011.56437348  .00000051  00000+0  96977-4 0  9999
2 49206  87.9192 224.3217 0001340  94.2898 265.8387 13.18692657 64881
ONEWEB-0341             
1 49207U 21083X   23011.34518568  .00000027  00000+0  35641-4 0  9994
2 49207  87.9188 224.2971 0001081  44.9020 315.2199 13.18687251 64878
ONEWEB-0342             
1 49208U 21083Y   23011.48077686  .00000059  00000+0  11241-3 0  9995
2 49208  87.9313 163.7564 0001880  84.5863 275.5485 13.20772671 71425
ONEWEB-0343             
1 49209U 21083Z   23011.56857340 -.00000353  00000+0 -92722-3 0  9990
2 49209  87.9186 224.2895 0001532  39.6606 320.4638 13.18688045 64952
ONEWEB-0344             
1 49210U 21083AA  23011.50363733 -.00000233  00000+0 -67358-3 0  9998
2 49210  87.9022 209.1383 0001303  98.5600 261.5676 13.13468857 66457
ONEWEB-0345             
1 49211U 21083AB  23011.52163147  .00000171  00000+0  43297-3 0  9993
2 49211  87.9022 209.1206 0000722  99.1232 260.9979 13.13470007 66464
ONEWEB-0346             
1 49212U 21083AC  23011.50113514 -.00000040  00000+0 -13394-3 0  9997
2 49212  87.9191 224.2945 0001239 107.8699 252.2568 13.18688659 64889
ONEWEB-0348             
1 49213U 21083AD  23011.70172933  .00000654  00000+0  15769-2 0  9996
2 49213  87.9290 163.6733 0001244 115.6728 244.4534 13.20770098 72783
ONEWEB-0350             
1 49214U 21083AE  23011.53115173  .00000295  00000+0  77397-3 0  9998
2 49214  87.9023 209.1450 0001058  93.4566 266.6684 13.13472323 66491
ONEWEB-0351             
1 49215U 21083AF  23011.46813779 -.00000004  00000+0 -41236-4 0  9992
2 49215  87.9289 163.7637 0002499  77.1841 282.9571 13.20629504 71410
ONEWEB-0352             
1 49216U 21083AG  23011.51208903  .00000000  00000+0 -34126-4 0  9991
2 49216  87.9026 209.1328 0001695  73.3650 286.7666 13.13472129 66585
ONEWEB-0354             
1 49217U 21083AH  23011.48916191 -.00000833  00000+0 -20811-2 0  9992
2 49217  87.9318 163.6902 0001358  83.1924 276.9364 13.20775143 71459
ONEWEB-0355             
1 49218U 21083AJ  23011.54387720  .00000247  00000+0  64212-3 0  9991
2 49218  87.9023 209.1294 0001399  76.2903 283.8382 13.13473510 66465
ONEWEB-0357             
1 49219U 21083AK  23011.91667824  .00000013  00000+0  00000+0 0  9991
2 49219  87.9303 163.6617 0001446 115.3131 127.1949 13.21219648 72804
ONEWEB-0332             
1 49279U 21090A   23011.55011530  .00000017  00000+0  10603-4 0  9991
2 49279  87.9086 178.8570 0001938  81.6594 278.4756 13.14501542 63016
ONEWEB-0347             
1 49280U 21090B   23011.91667824  .00000013  00000+0  00000+0 0  9997
2 49280  87.9613 163.6542 0001922 136.1643  57.2781 13.29195671 65739
ONEWEB-0349             
1 49281U 21090C   23011.44287228  .00000071  00000+0  14271-3 0  9995
2 49281  87.9313 163.7203 0001061 107.1213 253.0037 13.20770568 64461
ONEWEB-0353             
1 49282U 21090D   23011.69390017  .00000086  00000+0  19809-3 0  9992
2 49282  87.9032 178.8046 0001893  89.0136 271.1210 13.14502503 64321
ONEWEB-0356             
1 49283U 21090E   23011.44077019  .00000175  00000+0  39731-3 0  9995
2 49283  87.9228 163.7314 0001840 133.1995 226.9292 13.20773169 64464
ONEWEB-0358             
1 49284U 21090F   23011.46602932  .00000032  00000+0  46446-4 0  9990
2 49284  87.9311 163.6948 0001263 115.2070 244.9195 13.20770955 65197
ONEWEB-0359             
1 49285U 21090G   23011.46392357  .00000046  00000+0  82310-4 0  9993
2 49285  87.9312 163.7325 0000951  85.3191 274.8051 13.20771094 65179
ONEWEB-0360             
1 49286U 21090H   23011.45549682  .00000030  00000+0  41097-4 0  9998
2 49286  87.9318 163.7203 0001412 100.4352 259.6940 13.20771039 64482
ONEWEB-0361             
1 49287U 21090J   23011.43867784  .00000094  00000+0  19863-3 0  9998
2 49287  87.9315 163.7230 0001411 101.0016 259.1276 13.20771093 64930
ONEWEB-0362             
1 49288U 21090K   23011.53218363  .00000009  00000+0 -10698-4 0  9998
2 49288  87.9276 193.9764 0001732  92.1700 267.9632 13.19723952 61692
ONEWEB-0363             
1 49289U 21090L   23011.45341068  .00000056  00000+0  10477-3 0  9994
2 49289  87.9314 163.7198 0001406 113.6837 246.4444 13.20773248 64949
ONEWEB-0364             
1 49290U 21090M   23011.91667824  .00005528  00000+0  12281-1 0  9990
2 49290  87.9582 163.6893 0001565 162.5787  35.0548 13.27393398 66953
ONEWEB-0365             
1 49291U 21090N   23011.54061164 -.00000018  00000+0 -77740-4 0  9990
2 49291  87.9275 193.9665 0001488  86.0668 274.0635 13.19731652 61203
ONEWEB-0366             
1 49292U 21090P   23011.53740485  .00000157  00000+0  38844-3 0  9993
2 49292  87.9093 178.8316 0001751  97.5795 262.5533 13.14505708 62990
ONEWEB-0367             
1 49293U 21090Q   23011.45130150  .00000089  00000+0  18645-3 0  9998
2 49293  87.9203 163.7240 0001861  94.6498 265.4848 13.20770793 64463
ONEWEB-0368             
1 49294U 21090R   23011.74671919 -.00041071  00000+0 -83747-1 0  9995
2 49294  87.9877 163.7336 0000738 290.7114  69.3947 13.33590218 66956
ONEWEB-0369             
1 49295U 21090S   23011.53640456  .00000038  00000+0  61640-4 0  9992
2 49295  87.9223 193.9694 0001658  93.0903 267.0420 13.19725430 61190
ONEWEB-0370             
1 49296U 21090T   23011.45761593  .00000039  00000+0  64270-4 0  9993
2 49296  87.9241 163.7285 0001581 102.0068 258.1243 13.20770748 64506
ONEWEB-0371             
1 49297U 21090U   23011.54481694  .00000041  00000+0  70549-4 0  9994
2 49297  87.9271 193.9535 0001635  89.2977 270.8343 13.19723440 61232
ONEWEB-0372             
1 49298U 21090V   23011.44918273  .00000095  00000+0  20170-3 0  9995
2 49298  87.9237 163.7222 0002003  98.7779 261.3581 13.20773072 64474
ONEWEB-0373             
1 49299U 21090W   23011.91667824  .00011515  00000+0  25694-1 0  9994
2 49299  87.9572 163.6624 0001392 113.1271 161.8386 13.27138061 67011
ONEWEB-0374             
1 49300U 21090X   23011.52473455  .00000270  00000+0  69292-3 0  9999
2 49300  87.9031 178.8430 0001606  96.5668 263.5645 13.14504900 62994
ONEWEB-0375             
1 49301U 21090Y   23011.46181074  .00000063  00000+0  12304-3 0  9998
2 49301  87.9310 163.7250 0001482 131.8703 228.2557 13.20771236 65160
ONEWEB-0376             
1 49302U 21090Z   23011.54271928 -.00000033  00000+0 -11583-3 0  9993
2 49302  87.9216 193.9701 0001846  83.8157 276.3186 13.19726748 61237
ONEWEB-0377             
1 49303U 21090AA  23011.45971316 -.00000046  00000+0 -14506-3 0  9994
2 49303  87.9313 163.7204 0001273  91.7854 268.3425 13.20771552 65152
ONEWEB-0378             
1 49304U 21090AB  23011.65540412  .00001213  00000+0  29496-2 0  9994
2 49304  87.9189 163.6879 0002011  96.4065 263.7297 13.20783012 65765
ONEWEB-0379             
1 49305U 21090AC  23011.51840172  .00000186  00000+0  46609-3 0  9990
2 49305  87.9052 178.8441 0001630  95.5662 264.5653 13.14502391 62996
ONEWEB-0380             
1 49306U 21090AD  23011.53850302 -.00000047  00000+0 -15020-3 0  9990
2 49306  87.9214 193.9752 0001293  87.1432 272.9849 13.19724227 61209
ONEWEB-0381             
1 49307U 21090AE  23011.44708451  .00000085  00000+0  17830-3 0  9999
2 49307  87.9242 163.7501 0001349 103.6518 256.4765 13.20772640 64468
ONEWEB-0382             
1 49308U 21090AF  23011.43656437  .00000031  00000+0  43129-4 0  9997
2 49308  87.9230 163.7327 0001521 118.0857 242.0430 13.20772686 64459
ONEWEB-0383             
1 49309U 21090AG  23011.51205259  .00000133  00000+0  32442-3 0  9997
2 49309  87.9084 178.8212 0001703 101.7544 258.3776 13.14503608 63025
ONEWEB-0384             
1 49310U 21090AH  23011.66173148 -.00001459  00000+0 -36202-2 0  9997
2 49310  87.9225 163.6796 0001736 135.8296 224.2976 13.20762626 65807
ONEWEB-0385             
1 49311U 21090AJ  23011.65750930  .00000758  00000+0  18321-2 0  9998
2 49311  87.9243 163.6881 0001765 113.0067 247.1253 13.20776604 65789
ONEWEB-0386             
1 49312U 21090AK  23011.44498524  .00000107  00000+0  23041-3 0  9998
2 49312  87.9317 163.7220 0001845 111.3078 248.8252 13.20772652 64451
